CUTE-1 (CO-55)          
1 27844U 03031E   26199.29733931  .00000128  00000+0  74435-4 0  9993
2 27844  98.6744 207.4657 0010867  94.6885 265.5536 14.24352673196104
CUBESAT XI-IV (CO-57)   
1 27848U 03031J   26198.95002441  .00000107  00000+0  66203-4 0  9995
2 27848  98.6776 206.8106 0010632 112.1739 248.0569 14.23635431195756
CUBESAT XI-V            
1 28895U 05043F   26199.38529580  .00000626  00000+0  10630-3 0  9997
2 28895  98.3020 355.6693 0015320 105.9745 254.3151 14.72706792106345
CUTE-1.7+APD II (CO-65) 
1 32785U 08021C   26199.86636480  .00002027  00000+0  12990-3 0  9998
2 32785  97.8299 181.9540 0006833 284.1756  75.8712 15.09718955989974
CANX-2                  
1 32790U 08021H   26199.92054161  .00001322  00000+0  95613-4 0  9992
2 32790  97.8658 180.3233 0008626 303.0862  56.9536 15.05816802989589
SEEDS II (CO-66)        
1 32791U 08021J   26199.46116429  .00009670  00000+0  29894-3 0  9999
2 32791  97.7530 198.8780 0003459 149.6253 210.5190 15.33733639992086
SWISSCUBE               
1 35932U 09051B   26199.70847585  .00000425  00000+0  93582-4 0  9999
2 35932  98.4003 108.1426 0007982 109.6999 250.5063 14.62534308893769
BEESAT-1                
1 35933U 09051C   26199.73440735  .00000344  00000+0  78836-4 0  9994
2 35933  98.3929 107.7381 0006294 120.7003 239.4819 14.61764858893798
ITUPSAT1                
1 35935U 09051E   26199.68445378  .00000317  00000+0  75415-4 0  9998
2 35935  98.4014 106.8454 0008288 133.4128 226.7763 14.60481463893335
TISAT 1                 
1 36799U 10035E   26199.78899867  .00011463  00000+0  36422-3 0  9996
2 36799  98.0714 149.1728 0004702 112.8367 247.3370 15.32815987872549
STRAND-1                
1 39090U 13009E   26199.73373043  .00000103  00000+0  48978-4 0  9994
2 39090  98.3938  19.1941 0009578 131.5645 228.6365 14.37180014701595
BRITE-AUSTRIA           
1 39091U 13009F   26199.48169857  .00000062  00000+0  35786-4 0  9990
2 39091  98.4011  18.1453 0010939 141.4907 218.7063 14.36553265701541
NEE-01 PEGASO           
1 39151U 13018B   26199.34771828  .00001462  00000+0  14351-3 0  9998
2 39151  98.1262 344.5370 0013603  65.0738 295.1893 14.93797792715353
POPACS 2                
1 39269U 13055E   26199.77219252  .00014075 -92815-6  22904-3 0  9994
2 39269  80.9910 108.0235 0414611  92.4092 272.4645 14.92117580667928
POPACS 3                
1 39270U 13055F   26199.30837120  .00007544  00000+0  17940-3 0  9999
2 39270  81.0005 195.4250 0548375 335.1698  22.3977 14.56710923643089
ZACUBE-1 (TSHEPISOSAT)  
1 39417U 13066B   26199.86699965  .00001274  00000+0  10187-3 0  9998
2 39417  97.8003 162.3585 0044064 143.4154 217.0094 15.01338468685486
WNISAT-1                
1 39423U 13066H   26199.84722405  .00000555  00000+0  10865-3 0  9993
2 39423  97.7241 346.7625 0164073 131.8801 229.6533 14.58124563671349
TRITON-1                
1 39427U 13066M   26199.89935926  .00000729  00000+0  92675-4 0  9999
2 39427  97.8219 108.9816 0090847 130.1851 230.7360 14.81801609678788
GOMX-1                  
1 39430U 13066Q   26199.84800809  .00000614  00000+0  99250-4 0  9998
2 39430  97.6463  38.3123 0127919 336.4536  23.0846 14.69547400674566
CUBEBUG-2 (LO-74)       
1 39440U 13066AA  26199.81193302  .00001891  00000+0  17796-3 0  9991
2 39440  97.8920 148.9319 0055575 283.1152  76.3869 14.93981472681711
NEE-02 KRYSAOR          
1 39441U 13066AB  26199.77494382  .00000989  00000+0  11341-3 0  9996
2 39441  97.8896 138.7683 0065120 327.4337  32.2869 14.86747130680891
FUNCUBE-1 (AO-73)       
1 39444U 13066AE  26199.87145521  .00004515  00000+0  27859-3 0  9998
2 39444  97.8298 171.9904 0037964  95.7411 264.8148 15.09848087684445
UWE-3                   
1 39446U 13066AG  26199.82895623  .00002139  00000+0  18604-3 0  9998
2 39446  97.8721 156.1237 0047627 212.0168 147.8158 14.97214313682312
BRITE-CA1 (TORONTO)     
1 40020U 14033L   26199.90342447  .00000523  00000+0  86047-4 0  9995
2 40020  97.9776 328.2536 0078754 174.3960 185.8147 14.72726843646883
DUCHIFAT-1              
1 40021U 14033M   26199.67267288  .00094147  00000+0  72509-3 0  9991
2 40021  98.0415 263.4357 0003153 232.8599 127.2374 15.71696006660689
NANOSATC-BR1            
1 40024U 14033Q   26199.81899585  .00009316  00000+0  30049-3 0  9998
2 40024  98.0707 235.0319 0005116  87.9134 272.2692 15.32398569658821
QB50P1                  
1 40025U 14033R   26199.31896595  .00004488  00000+0  21986-3 0  9997
2 40025  98.0968 212.6585 0010487 115.5699 244.6619 15.18693321657759
QB50P2                  
1 40032U 14033Y   26199.79558119  .00003553  00000+0  19124-3 0  9997
2 40032  98.0769 198.6548 0009228  73.8940 286.3306 15.15534284657456
PERSEUS-M2              
1 40037U 14033AD  26199.91038458  .00000045  00000+0  95265-5 0  9990
2 40037  97.9986 151.1025 0011190 187.0853 173.0211 14.95592301655520
PERSEUS-M1              
1 40039U 14033AF  26199.81388235  .00000545  00000+0  54381-4 0  9990
2 40039  97.9655 144.4689 0011156 184.3661 175.7464 14.95722381655369
